IRIDIUM 144             
1 43249U 18030A   24206.49897326  .00000023  00000+0  10386-5 0  9993
2 43249  86.3961 219.8721 0002349  84.1264 276.0200 14.34217188330877
IRIDIUM 149             
1 43250U 18030B   24206.50531719  .00000023  00000+0  11491-5 0  9996
2 43250  86.3960 219.8441 0002186  85.4137 274.7308 14.34217451330876
IRIDIUM 157             
1 43251U 18030C   24206.45457612  .00000048  00000+0  10121-4 0  9995
2 43251  86.3962 219.9030 0002068  96.3029 263.8403 14.34217779330849
IRIDIUM 140             
1 43252U 18030D   24206.19453103  .00000015  00000+0 -18576-5 0  9996
2 43252  86.3962 220.0263 0002604  85.6529 274.4964 14.34217602330860
IRIDIUM 145             
1 43253U 18030E   24206.11207711  .00000050  00000+0  10852-4 0  9997
2 43253  86.3961 220.0342 0002271  79.4339 280.7113 14.34217523330787
IRIDIUM 146             
1 43254U 18030F   24206.09305058 -.00000003  00000+0 -79621-5 0  9998
2 43254  86.3970 220.0574 0002282  89.2827 270.8630 14.34215995330794
IRIDIUM 148             
1 43255U 18030G   24205.50318723  .00000043  00000+0  82422-5 0  9992
2 43255  86.3963 220.3358 0002115  90.6703 269.4735 14.34217673330744
IRIDIUM 142             
1 43256U 18030H   24205.95985669  .00000319  00000+0  10697-3 0  9990
2 43256  86.3959 220.0593 0002240  81.7753 278.3697 14.34218224330775
